[{"OBJECT_NAME":"STARLINK-36095","OBJECT_ID":"2025-281Z","EPOCH":"2026-03-09T05:28:48.726336","MEAN_MOTION":15.27588294,"ECCENTRICITY":0.00023388,"INCLINATION":43.0043,"RA_OF_ASC_NODE":346.1916,"ARG_OF_PERICENTER":259.0875,"MEAN_ANOMALY":100.9714,"EPHEMERIS_TYPE":0,"CLASSIFICATION_TYPE":"U","NORAD_CAT_ID":66871,"ELEMENT_SET_NO":999,"REV_AT_EPOCH":1609,"BSTAR":0.0016951974,"MEAN_MOTION_DOT":0.00046695,"MEAN_MOTION_DDOT":0},{"OBJECT_NAME":"SL-3 R\/B","OBJECT_ID":"1982-027B","EPOCH":"2026-03-09T22:44:40.208640","MEAN_MOTION":15.28335844,"ECCENTRICITY":0.00065199,"INCLINATION":81.188,"RA_OF_ASC_NODE":37.4466,"ARG_OF_PERICENTER":276.581,"MEAN_ANOMALY":83.4683,"EPHEMERIS_TYPE":0,"CLASSIFICATION_TYPE":"U","NORAD_CAT_ID":13121,"ELEMENT_SET_NO":999,"REV_AT_EPOCH":39859,"BSTAR":0.00030526741,"MEAN_MOTION_DOT":8.453e-5,"MEAN_MOTION_DDOT":0}]
